     3.02           N: GNSS NAV DATA    E: GALILEO          RINEX VERSION / TYPE
Converto v3.5.2     IGN                 20190104 013014 UTC PGM / RUN BY / DATE
GAL    3.8500E+01  7.8125E-03  5.7983E-04  0.0000E+00       IONOSPHERIC CORR
GAUT  9.3132257462E-10-8.881784197E-16 259200 2034          TIME SYSTEM CORR
GPGA -2.2700987756E-09-1.154631946E-14 345600 2034          TIME SYSTEM CORR
    18    18  1929     7                                    LEAP SECONDS
                                                            END OF HEADER
E09 2019 01 03 11 00 00 6.569352408405D-03-1.132605120802D-11 0.000000000000D+00
     2.000000000000D+00-7.343750000000D+00 3.723369378994D-09 1.643908315928D+00
    -3.334134817123D-07 2.590307267383D-04 4.312023520470D-06 5.440603658676D+03
     3.852000000000D+05-9.313225746155D-09 1.357620132499D+00 5.029141902924D-08
     9.581601997669D-01 2.457187500000D+02 1.557475808148D-01-5.737381842126D-09
    -1.089331089298D-10 5.170000000000D+02 2.034000000000D+03 0.000000000000D+00
     3.120000000000D+00 0.000000000000D+00-3.492459654808D-09-4.190951585770D-09
     3.858550000000D+05
E11 2019 01 02 00 50 00 5.718708154745D-03 1.278976924368D-12 0.000000000000D+00
     5.300000000000D+01-1.434375000000D+02 2.597965358542D-09 1.590631951108D+00
    -6.640329957008D-06 2.330276183784D-04 9.709969162941D-06 5.440608566284D+03
     2.622000000000D+05 1.676380634308D-08-7.383115834467D-01 3.166496753693D-08
     9.820415240284D-01 1.416562500000D+02-3.778563880124D-01-5.303435195078D-09
    -2.928693420408D-11 5.130000000000D+02 2.034000000000D+03 0.000000000000D+00
     3.120000000000D+00 0.000000000000D+00-1.862645149231D-08-2.002343535423D-08
     2.628640000000D+05
E11 2019 01 03 00 00 00 5.718809319660D-03 1.193711796077D-12 0.000000000000D+00
     6.400000000000D+01-1.510625000000D+02 2.574750105820D-09-6.601266654739D-01
    -7.109716534615D-06 2.339442726225D-04 9.642913937569D-06 5.440605611801D+03
     3.456000000000D+05 2.235174179077D-08-7.387532486552D-01-2.421438694000D-08
     9.820403390648D-01 1.461562500000D+02-3.539351070693D-01-5.313435611635D-09
    -2.082229590363D-10 5.170000000000D+02 2.034000000000D+03 0.000000000000D+00
     3.120000000000D+00 0.000000000000D+00-1.839362084866D-08-2.002343535423D-08
     3.466150000000D+05
E11 2019 01 03 00 10 00 5.718810076360D-03 1.207922650792D-12 0.000000000000D+00
     6.500000000000D+01-1.528437500000D+02 2.574750105820D-09-5.854741899558D-01
    -7.208436727524D-06 2.341811778024D-04 9.609386324883D-06 5.440606103897D+03
     3.462000000000D+05 2.421438694000D-08-7.387564041695D-01-1.862645149231D-08
     9.820402000876D-01 1.467812500000D+02-3.542021510613D-01-5.317721504446D-09
    -2.107230631757D-10 5.170000000000D+02 2.034000000000D+03 0.000000000000D+00
     3.120000000000D+00 0.000000000000D+00-1.839362084866D-08-2.002343535423D-08
     3.468640000000D+05
E11 2019 01 03 00 20 00 5.718810716644D-03 1.207922650792D-12 0.000000000000D+00
     6.600000000000D+01-1.549687500000D+02 2.572964317149D-09-5.108507080111D-01
    -7.320195436478D-06 2.344874665141D-04 9.547919034958D-06 5.440606727600D+03
     3.468000000000D+05 2.421438694000D-08-7.387595640726D-01-1.117587089539D-08
     9.820400596474D-01 1.479375000000D+02-3.544401912395D-01-5.322007397256D-09
    -2.128660095809D-10 5.130000000000D+02 2.034000000000D+03 0.000000000000D+00
     3.120000000000D+00 0.000000000000D+00-1.839362084866D-08-2.002343535423D-08
     3.474640000000D+05
E11 2019 01 03 00 30 00 5.718811356928D-03 1.207922650792D-12 0.000000000000D+00
     6.700000000000D+01-1.572187500000D+02 2.570107055275D-09-4.363026833809D-01
    -7.437542080879D-06 2.348505659029D-04 9.458512067795D-06 5.440607461929D+03
     3.474000000000D+05 2.235174179077D-08-7.387627327531D-01-5.587935447693D-09
     9.820399177444D-01 1.496562500000D+02-3.546027770290D-01-5.325936132332D-09
    -2.146517982518D-10 5.130000000000D+02 2.034000000000D+03 0.000000000000D+00
     3.120000000000D+00 0.000000000000D+00-1.839362084866D-08-2.002343535423D-08
     3.480640000000D+05
E11 2019 01 03 00 40 00 5.718812113628D-03 1.222133505507D-12 0.000000000000D+00
     6.800000000000D+01-1.594062500000D+02 2.566892635667D-09-3.618678417967D-01
    -7.549300789833D-06 2.352544106543D-04 9.343028068542D-06 5.440608276367D+03
     3.480000000000D+05 1.862645149231D-08-7.387658970450D-01 0.000000000000D+00
     9.820397656009D-01 1.519062500000D+02-3.546522002534D-01-5.331293498345D-09
    -2.160804291886D-10 5.130000000000D+02 2.034000000000D+03 0.000000000000D+00
     3.120000000000D+00 0.000000000000D+00-1.839362084866D-08-2.002343535423D-08
     3.486640000000D+05
E11 2019 01 03 00 50 00 5.718812870327D-03 1.222133505507D-12 0.000000000000D+00
     6.900000000000D+01-1.613125000000D+02 2.561178111920D-09-2.875673546089D-01
    -7.648020982742D-06 2.356838667765D-04 9.203329682350D-06 5.440609140396D+03
     3.486000000000D+05 1.676380634308D-08-7.387690891322D-01 1.862645149231D-09
     9.820396280866D-01 1.546250000000D+02-3.545672763960D-01-5.333079287016D-09
    -2.167947446570D-10 5.130000000000D+02 2.034000000000D+03 0.000000000000D+00
     3.120000000000D+00 0.000000000000D+00-1.839362084866D-08-2.002343535423D-08
     3.492640000000D+05
E11 2019 01 03 01 00 00 5.718813627027D-03 1.236344360223D-12 0.000000000000D+00
     7.000000000000D+01-1.628437500000D+02 2.556535061376D-09-2.134073075567D-01
    -7.728114724159D-06 2.361197257414D-04 9.046867489815D-06 5.440610021591D+03
     3.492000000000D+05 1.303851604462D-08-7.387722724419D-01 5.587935447693D-09
     9.820394817948D-01 1.576875000000D+02-3.543419489759D-01-5.336650864358D-09
    -2.175090601254D-10 5.130000000000D+02 2.034000000000D+03 0.000000000000D+00
     3.120000000000D+00 0.000000000000D+00-1.839362084866D-08-2.002343535423D-08
     3.499540000000D+05
E11 2019 01 03 01 10 00 5.718814441934D-03 1.236344360223D-12 0.000000000000D+00
     7.100000000000D+01-1.639062500000D+02 2.551892010831D-09-1.393794688000D-01
    -7.782131433487D-06 2.365444088355D-04 8.881092071533D-06 5.440610891342D+03
     3.498000000000D+05 1.117587089539D-08-7.387754601404D-01 7.450580596924D-09
     9.820393355030D-01 1.608750000000D+02-3.539844542220D-01-5.339865283966D-09
    -2.178662178596D-10 5.130000000000D+02 2.034000000000D+03 0.000000000000D+00
     3.120000000000D+00 0.000000000000D+00-1.839362084866D-08-2.002343535423D-08
     3.504640000000D+05
E11 2019 01 03 01 20 00 5.718815198634D-03 1.236344360223D-12 0.000000000000D+00
     7.200000000000D+01-1.644062500000D+02 2.547963275755D-09-6.546102705739D-02
    -7.808208465576D-06 2.369413850829D-04 8.717179298401D-06 5.440611719131D+03
     3.504000000000D+05 7.450580596924D-09-7.387786536906D-01 7.450580596924D-09
     9.820391892112D-01 1.640312500000D+02-3.535176107303D-01-5.342722545839D-09
    -2.178662178596D-10 5.130000000000D+02 2.034000000000D+03 0.000000000000D+00
     3.120000000000D+00 0.000000000000D+00-1.839362084866D-08-2.002343535423D-08
     3.510640000000D+05
E11 2019 01 03 01 30 00 5.718815955333D-03 1.236344360223D-12 0.000000000000D+00
     7.300000000000D+01-1.644375000000D+02 2.544391698413D-09 8.383034078447D-03
    -7.810071110725D-06 2.372959861532D-04 8.562579751015D-06 5.440612476349D+03
     3.510000000000D+05 3.725290298462D-09-7.387818530924D-01 7.450580596924D-09
     9.820390458452D-01 1.669375000000D+02-3.529764349082D-01-5.345222649979D-09
    -2.182233755938D-10 5.130000000000D+02 2.034000000000D+03 0.000000000000D+00
     3.120000000000D+00 0.000000000000D+00-1.839362084866D-08-2.002343535423D-08
     3.516640000000D+05
E11 2019 01 03 01 40 00 5.718816537410D-03 1.236344360223D-12 0.000000000000D+00
     7.400000000000D+01-1.640937500000D+02 2.542605909742D-09 8.219799338493D-02
    -7.791444659233D-06 2.375976182520D-04 8.424744009972D-06 5.440613138199D+03
     3.516000000000D+05 0.000000000000D+00-7.387850524943D-01 7.450580596924D-09
     9.820388980905D-01 1.694687500000D+02-3.524062099217D-01-5.348079911852D-09
    -2.178662178596D-10 5.130000000000D+02 2.034000000000D+03 0.000000000000D+00
     3.120000000000D+00 0.000000000000D+00-1.839362084866D-08-2.002343535423D-08
     3.522640000000D+05
E11 2019 01 03 01 50 00 5.718817352317D-03 1.236344360223D-12 0.000000000000D+00
     7.500000000000D+01-1.634687500000D+02 2.539391490134D-09 1.560361062959D-01
    -7.756054401398D-06 2.378366189077D-04 8.311122655869D-06 5.440613685608D+03
     3.522000000000D+05 3.725290298462D-09-7.387882650624D-01 7.450580596924D-09
     9.820387839829D-01 1.715000000000D+02-3.518591868160D-01-5.345579807713D-09
    -2.182233755938D-10 5.130000000000D+02 2.034000000000D+03 0.000000000000D+00
     3.120000000000D+00 0.000000000000D+00-1.839362084866D-08-2.002343535423D-08
     3.528640000000D+05
E11 2019 01 03 02 00 00 5.718818109017D-03 1.250555214938D-12 0.000000000000D+00
     7.600000000000D+01-1.627812500000D+02 2.538320016932D-09 2.299497642964D-01
    -7.715076208115D-06 2.380092628300D-04 8.225440979004D-06 5.440614099503D+03
     3.528000000000D+05 5.587935447693D-09-7.387914747046D-01 9.313225746155D-09
     9.820386654865D-01 1.729375000000D+02-3.513877629279D-01-5.343436861308D-09
    -2.185805333280D-10 5.130000000000D+02 2.034000000000D+03 0.000000000000D+00
     3.120000000000D+00 0.000000000000D+00-1.839362084866D-08-2.002343535423D-08
     3.534640000000D+05
E11 2019 01 03 02 10 00 5.718818923924D-03 1.250555214938D-12 0.000000000000D+00
     7.700000000000D+01-1.622187500000D+02 2.539391490134D-09 3.039916587699D-01
    -7.674098014832D-06 2.381153171882D-04 8.167698979378D-06 5.440614370346D+03
     3.534000000000D+05 5.587935447693D-09-7.387946814211D-01 1.117587089539D-08
     9.820385396756D-01 1.737812500000D+02-3.510446296407D-01-5.342365388105D-09
    -2.185805333280D-10 5.130000000000D+02 2.034000000000D+03 0.000000000000D+00
     3.120000000000D+00 0.000000000000D+00-1.839362084866D-08-2.002343535423D-08
     3.540640000000D+05
